<?xml version="1.0" encoding="UTF-8"?>
<ndm xmlns:xsi="http://www.w3.org/2001/XMLSchema-instance" xsi:noNamespaceSchemaLocation="https://sanaregistry.org/r/ndmxml_unqualified/ndmxml-2.0.0-master-2.0.xsd">
<omm id="CCSDS_OMM_VERS" version="2.0">
<header><CREATION_DATE/><ORIGINATOR/></header><body><segment><metadata><OBJECT_NAME>KUIPER-00044</OBJECT_NAME><OBJECT_ID>2025-134F</OBJECT_ID><CENTER_NAME>EARTH</CENTER_NAME><REF_FRAME>TEME</REF_FRAME><TIME_SYSTEM>UTC</TIME_SYSTEM><MEAN_ELEMENT_THEORY>SGP4</MEAN_ELEMENT_THEORY></metadata><data><meanElements><EPOCH>2025-10-17T09:13:22.802880</EPOCH><MEAN_MOTION>14.79946644</MEAN_MOTION><ECCENTRICITY>.0013359</ECCENTRICITY><INCLINATION>51.8989</INCLINATION><RA_OF_ASC_NODE>160.2896</RA_OF_ASC_NODE><ARG_OF_PERICENTER>155.3825</ARG_OF_PERICENTER><MEAN_ANOMALY>204.7778</MEAN_ANOMALY></meanElements><tleParameters><EPHEMERIS_TYPE>0</EPHEMERIS_TYPE><CLASSIFICATION_TYPE>U</CLASSIFICATION_TYPE><NORAD_CAT_ID>64505</NORAD_CAT_ID><ELEMENT_SET_NO>999</ELEMENT_SET_NO><REV_AT_EPOCH>1866</REV_AT_EPOCH><BSTAR>.8541E-3</BSTAR><MEAN_MOTION_DOT>.6304E-4</MEAN_MOTION_DOT><MEAN_MOTION_DDOT>0</MEAN_MOTION_DDOT></tleParameters></data></segment></body></omm>
<omm id="CCSDS_OMM_VERS" version="2.0">
<header><CREATION_DATE/><ORIGINATOR/></header><body><segment><metadata><OBJECT_NAME>KUIPER-00046</OBJECT_NAME><OBJECT_ID>2025-134G</OBJECT_ID><CENTER_NAME>EARTH</CENTER_NAME><REF_FRAME>TEME</REF_FRAME><TIME_SYSTEM>UTC</TIME_SYSTEM><MEAN_ELEMENT_THEORY>SGP4</MEAN_ELEMENT_THEORY></metadata><data><meanElements><EPOCH>2025-10-17T14:05:29.361696</EPOCH><MEAN_MOTION>14.79550131</MEAN_MOTION><ECCENTRICITY>.0012307</ECCENTRICITY><INCLINATION>51.8974</INCLINATION><RA_OF_ASC_NODE>155.8231</RA_OF_ASC_NODE><ARG_OF_PERICENTER>165.6446</ARG_OF_PERICENTER><MEAN_ANOMALY>194.4868</MEAN_ANOMALY></meanElements><tleParameters><EPHEMERIS_TYPE>0</EPHEMERIS_TYPE><CLASSIFICATION_TYPE>U</CLASSIFICATION_TYPE><NORAD_CAT_ID>64506</NORAD_CAT_ID><ELEMENT_SET_NO>999</ELEMENT_SET_NO><REV_AT_EPOCH>1874</REV_AT_EPOCH><BSTAR>.77027E-3</BSTAR><MEAN_MOTION_DOT>.5607E-4</MEAN_MOTION_DOT><MEAN_MOTION_DDOT>0</MEAN_MOTION_DDOT></tleParameters></data></segment></body></omm>
<omm id="CCSDS_OMM_VERS" version="2.0">
<header><CREATION_DATE/><ORIGINATOR/></header><body><segment><metadata><OBJECT_NAME>KUIPER-00047</OBJECT_NAME><OBJECT_ID>2025-134H</OBJECT_ID><CENTER_NAME>EARTH</CENTER_NAME><REF_FRAME>TEME</REF_FRAME><TIME_SYSTEM>UTC</TIME_SYSTEM><MEAN_ELEMENT_THEORY>SGP4</MEAN_ELEMENT_THEORY></metadata><data><meanElements><EPOCH>2025-10-17T16:10:41.871936</EPOCH><MEAN_MOTION>15.20862941</MEAN_MOTION><ECCENTRICITY>.0010745</ECCENTRICITY><INCLINATION>51.8650</INCLINATION><RA_OF_ASC_NODE>132.4547</RA_OF_ASC_NODE><ARG_OF_PERICENTER>181.5486</ARG_OF_PERICENTER><MEAN_ANOMALY>178.5462</MEAN_ANOMALY></meanElements><tleParameters><EPHEMERIS_TYPE>0</EPHEMERIS_TYPE><CLASSIFICATION_TYPE>U</CLASSIFICATION_TYPE><NORAD_CAT_ID>64507</NORAD_CAT_ID><ELEMENT_SET_NO>999</ELEMENT_SET_NO><REV_AT_EPOCH>1907</REV_AT_EPOCH><BSTAR>.5516E-3</BSTAR><MEAN_MOTION_DOT>.12054E-3</MEAN_MOTION_DOT><MEAN_MOTION_DDOT>0</MEAN_MOTION_DDOT></tleParameters></data></segment></body></omm>
<omm id="CCSDS_OMM_VERS" version="2.0">
<header><CREATION_DATE/><ORIGINATOR/></header><body><segment><metadata><OBJECT_NAME>KUIPER-00048</OBJECT_NAME><OBJECT_ID>2025-134J</OBJECT_ID><CENTER_NAME>EARTH</CENTER_NAME><REF_FRAME>TEME</REF_FRAME><TIME_SYSTEM>UTC</TIME_SYSTEM><MEAN_ELEMENT_THEORY>SGP4</MEAN_ELEMENT_THEORY></metadata><data><meanElements><EPOCH>2025-10-17T18:00:02.000160</EPOCH><MEAN_MOTION>15.16421070</MEAN_MOTION><ECCENTRICITY>.0003459</ECCENTRICITY><INCLINATION>51.8799</INCLINATION><RA_OF_ASC_NODE>130.8780</RA_OF_ASC_NODE><ARG_OF_PERICENTER>217.6220</ARG_OF_PERICENTER><MEAN_ANOMALY>203.4537</MEAN_ANOMALY></meanElements><tleParameters><EPHEMERIS_TYPE>0</EPHEMERIS_TYPE><CLASSIFICATION_TYPE>U</CLASSIFICATION_TYPE><NORAD_CAT_ID>64508</NORAD_CAT_ID><ELEMENT_SET_NO>999</ELEMENT_SET_NO><REV_AT_EPOCH>489</REV_AT_EPOCH><BSTAR>-.656E-1</BSTAR><MEAN_MOTION_DOT>-.1187297E-1</MEAN_MOTION_DOT><MEAN_MOTION_DDOT>0</MEAN_MOTION_DDOT></tleParameters></data></segment></body></omm>
<omm id="CCSDS_OMM_VERS" version="2.0">
<header><CREATION_DATE/><ORIGINATOR/></header><body><segment><metadata><OBJECT_NAME>KUIPER-00049</OBJECT_NAME><OBJECT_ID>2025-134K</OBJECT_ID><CENTER_NAME>EARTH</CENTER_NAME><REF_FRAME>TEME</REF_FRAME><TIME_SYSTEM>UTC</TIME_SYSTEM><MEAN_ELEMENT_THEORY>SGP4</MEAN_ELEMENT_THEORY></metadata><data><meanElements><EPOCH>2025-10-17T16:09:44.455680</EPOCH><MEAN_MOTION>14.80055670</MEAN_MOTION><ECCENTRICITY>.0004813</ECCENTRICITY><INCLINATION>51.8991</INCLINATION><RA_OF_ASC_NODE>141.4694</RA_OF_ASC_NODE><ARG_OF_PERICENTER>143.2873</ARG_OF_PERICENTER><MEAN_ANOMALY>216.8419</MEAN_ANOMALY></meanElements><tleParameters><EPHEMERIS_TYPE>0</EPHEMERIS_TYPE><CLASSIFICATION_TYPE>U</CLASSIFICATION_TYPE><NORAD_CAT_ID>64509</NORAD_CAT_ID><ELEMENT_SET_NO>999</ELEMENT_SET_NO><REV_AT_EPOCH>1895</REV_AT_EPOCH><BSTAR>.27966E-2</BSTAR><MEAN_MOTION_DOT>.21231E-3</MEAN_MOTION_DOT><MEAN_MOTION_DDOT>0</MEAN_MOTION_DDOT></tleParameters></data></segment></body></omm>
<omm id="CCSDS_OMM_VERS" version="2.0">
<header><CREATION_DATE/><ORIGINATOR/></header><body><segment><metadata><OBJECT_NAME>KUIPER-00050</OBJECT_NAME><OBJECT_ID>2025-134L</OBJECT_ID><CENTER_NAME>EARTH</CENTER_NAME><REF_FRAME>TEME</REF_FRAME><TIME_SYSTEM>UTC</TIME_SYSTEM><MEAN_ELEMENT_THEORY>SGP4</MEAN_ELEMENT_THEORY></metadata><data><meanElements><EPOCH>2025-10-17T16:03:36.315648</EPOCH><MEAN_MOTION>14.95734300</MEAN_MOTION><ECCENTRICITY>.0005611</ECCENTRICITY><INCLINATION>51.8891</INCLINATION><RA_OF_ASC_NODE>141.4037</RA_OF_ASC_NODE><ARG_OF_PERICENTER>189.7640</ARG_OF_PERICENTER><MEAN_ANOMALY>170.3221</MEAN_ANOMALY></meanElements><tleParameters><EPHEMERIS_TYPE>0</EPHEMERIS_TYPE><CLASSIFICATION_TYPE>U</CLASSIFICATION_TYPE><NORAD_CAT_ID>64510</NORAD_CAT_ID><ELEMENT_SET_NO>999</ELEMENT_SET_NO><REV_AT_EPOCH>1895</REV_AT_EPOCH><BSTAR>.88416E-3</BSTAR><MEAN_MOTION_DOT>.9715E-4</MEAN_MOTION_DOT><MEAN_MOTION_DDOT>0</MEAN_MOTION_DDOT></tleParameters></data></segment></body></omm>
<omm id="CCSDS_OMM_VERS" version="2.0">
<header><CREATION_DATE/><ORIGINATOR/></header><body><segment><metadata><OBJECT_NAME>KUIPER-00051</OBJECT_NAME><OBJECT_ID>2025-134M</OBJECT_ID><CENTER_NAME>EARTH</CENTER_NAME><REF_FRAME>TEME</REF_FRAME><TIME_SYSTEM>UTC</TIME_SYSTEM><MEAN_ELEMENT_THEORY>SGP4</MEAN_ELEMENT_THEORY></metadata><data><meanElements><EPOCH>2025-10-17T18:00:02.000160</EPOCH><MEAN_MOTION>14.80858833</MEAN_MOTION><ECCENTRICITY>.000365</ECCENTRICITY><INCLINATION>51.9003</INCLINATION><RA_OF_ASC_NODE>138.6978</RA_OF_ASC_NODE><ARG_OF_PERICENTER>154.3100</ARG_OF_PERICENTER><MEAN_ANOMALY>237.6900</MEAN_ANOMALY></meanElements><tleParameters><EPHEMERIS_TYPE>0</EPHEMERIS_TYPE><CLASSIFICATION_TYPE>U</CLASSIFICATION_TYPE><NORAD_CAT_ID>64511</NORAD_CAT_ID><ELEMENT_SET_NO>999</ELEMENT_SET_NO><REV_AT_EPOCH>520</REV_AT_EPOCH><BSTAR>-.95335E-2</BSTAR><MEAN_MOTION_DOT>-.73727E-3</MEAN_MOTION_DOT><MEAN_MOTION_DDOT>0</MEAN_MOTION_DDOT></tleParameters></data></segment></body></omm>
<omm id="CCSDS_OMM_VERS" version="2.0">
<header><CREATION_DATE/><ORIGINATOR/></header><body><segment><metadata><OBJECT_NAME>KUIPER-00052</OBJECT_NAME><OBJECT_ID>2025-134N</OBJECT_ID><CENTER_NAME>EARTH</CENTER_NAME><REF_FRAME>TEME</REF_FRAME><TIME_SYSTEM>UTC</TIME_SYSTEM><MEAN_ELEMENT_THEORY>SGP4</MEAN_ELEMENT_THEORY></metadata><data><meanElements><EPOCH>2025-10-17T16:22:45.941088</EPOCH><MEAN_MOTION>15.61451830</MEAN_MOTION><ECCENTRICITY>.0007224</ECCENTRICITY><INCLINATION>51.8690</INCLINATION><RA_OF_ASC_NODE>117.9069</RA_OF_ASC_NODE><ARG_OF_PERICENTER>197.9986</ARG_OF_PERICENTER><MEAN_ANOMALY>162.0756</MEAN_ANOMALY></meanElements><tleParameters><EPHEMERIS_TYPE>0</EPHEMERIS_TYPE><CLASSIFICATION_TYPE>U</CLASSIFICATION_TYPE><NORAD_CAT_ID>64512</NORAD_CAT_ID><ELEMENT_SET_NO>999</ELEMENT_SET_NO><REV_AT_EPOCH>1927</REV_AT_EPOCH><BSTAR>.17278E-2</BSTAR><MEAN_MOTION_DOT>.153066E-2</MEAN_MOTION_DOT><MEAN_MOTION_DDOT>0</MEAN_MOTION_DDOT></tleParameters></data></segment></body></omm>

</ndm>
