KUIPER-00044            
1 64505U 25134F   25290.38429170  .00006304  00000+0  85410-3 0  9990
2 64505  51.8989 160.2896 0013359 155.3825 204.7778 14.79946644 18664
KUIPER-00046            
1 64506U 25134G   25290.58714539  .00005607  00000+0  77027-3 0  9999
2 64506  51.8974 155.8231 0012307 165.6446 194.4868 14.79550131 18743
KUIPER-00047            
1 64507U 25134H   25290.67409574  .00012054  00000+0  55160-3 0  9998
2 64507  51.8650 132.4547 0010745 181.5486 178.5462 15.20862941 19073
KUIPER-00048            
1 64508U 25134J   25290.75002315 -.01187297  00000+0 -65600-1 0  9993
2 64508  51.8799 130.8780 0003459 217.6220 203.4537 15.16421070  4894
KUIPER-00049            
1 64509U 25134K   25290.67343120  .00021231  00000+0  27966-2 0  9993
2 64509  51.8991 141.4694 0004813 143.2873 216.8419 14.80055670 18952
KUIPER-00050            
1 64510U 25134L   25290.66917032  .00009715  00000+0  88416-3 0  9994
2 64510  51.8891 141.4037 0005611 189.7640 170.3221 14.95734300 18953
KUIPER-00051            
1 64511U 25134M   25290.75002315 -.00073727  00000+0 -95335-2 0  9997
2 64511  51.9003 138.6978 0003650 154.3100 237.6900 14.80858833  5209
KUIPER-00052            
1 64512U 25134N   25290.68247617  .00153066  00000+0  17278-2 0  9999
2 64512  51.8690 117.9069 0007224 197.9986 162.0756 15.61451830 19276
